STARLINK-2022           
1 47643U 21012Z   24074.24898201  .00002676  00000+0  19851-3 0  9998
2 47643  53.0534  68.2452 0001028  99.4137 260.6968 15.06391605170929
